HORS 3 (RS81S)          
1 61753U 24199U   26062.11804023  .00037919  00000+0  72849-3 0  9993
2 61753  97.3142 296.3095 0006254 322.2792  37.8019 15.47837077121111
HORS 4 (RS82S)          
1 61754U 24199V   26062.13302729  .00043943  00000+0  76730-3 0  9999
2 61754  97.3120 296.9964 0005973 319.2189  40.8615 15.50542841121169
HORIZON (RS59S)         
1 61757U 24199Y   26062.11449104  .00137462  00000+0  12157-2 0  9991
2 61757  97.3087 300.6340 0003291 296.2059  63.8864 15.68208128121398
ARCTICSAT 1 (RS74S)     
1 61762U 24199AD  26062.17356622  .00103099  00000+0  10740-2 0  9990
2 61762  97.3105 300.2583 0003677 292.0665  68.0204 15.64215268121377
SIT-2086                
1 61764U 24199AF  26062.12617272  .00027738  00000+0  54494-3 0  9998
2 61764  97.3137 297.0557 0006318 300.7910  59.2717 15.47251654118000
RUZAEVKA 390 (RS44S)    
1 61766U 24199AH  26062.12684159  .00909546  40737-3  16897-2 0  9993
2 61766  97.2874 303.9457 0001665 158.5882 201.5467 16.01174251118475
HYPERVIEW 1G (RS66S)    
1 61772U 24199AP  26062.13891860  .00073525  00000+0  10140-2 0  9999
2 61772  97.3102 298.0452 0007214 315.7926  44.2752 15.56935943118086
ALTAIR (RS65S)          
1 61779U 24199AW  26062.11715774  .00014925  00000+0  44297-3 0  9993
2 61779  97.3194 292.2259 0012718 333.9459  26.1143 15.34819802120833
ASRTU-1 (AO-123)        
1 61781U 24199AY  26062.15804963  .00010974  00000+0  33600-3 0  9995
2 61781  97.3168 291.8050 0013447 335.6356  24.4250 15.33901798117668
TUSUR GO (RS78S)        
1 61782U 24199AZ  26062.12941804  .00154723  00000+0  13447-2 0  9996
2 61782  97.3044 299.6593 0004427 314.6924  45.3976 15.68579333118196
SAMSAT-IONOSPHERE (RS7*)
1 61784U 24199BB  26062.14700536  .00041634  00000+0  76917-3 0  9993
2 61784  97.3129 296.1219 0009247 321.9994  38.0603 15.48918222121105
RTU MIREA 1 (RS51S)     
1 61785U 24199BC  26062.15286365  .00047512  00000+0  82211-3 0  9999
2 61785  97.3129 296.5536 0008961 317.8651  42.1911 15.50757976117987
TEVEL2-4                
1 63213U 25052D   26061.69961236  .00022254  00000+0  75407-3 0  9996
2 63213  97.4040 318.1473 0004459 108.3721 251.8005 15.30565789 53808
TEVEL2-5                
1 63214U 25052E   26062.16770052  .00022095  00000+0  75087-3 0  9991
2 63214  97.4034 318.5881 0004480 107.9794 252.1935 15.30472372 53876
TEVEL2-6                
1 63215U 25052F   26062.17735064  .00022399  00000+0  76213-3 0  9996
2 63215  97.4039 318.5831 0004565 109.1661 251.0075 15.30430207 53872
TEVEL2-1                
1 63217U 25052H   26062.17382953  .00021842  00000+0  75273-3 0  9990
2 63217  97.4013 318.3187 0004409 117.8452 242.3236 15.30019936 53862
