[{"OBJECT_NAME":"HORS 3 (RS81S)","OBJECT_ID":"2024-199U","EPOCH":"2026-03-03T02:49:58.675872","MEAN_MOTION":15.47837077,"ECCENTRICITY":0.0006254,"INCLINATION":97.3142,"RA_OF_ASC_NODE":296.3095,"ARG_OF_PERICENTER":322.2792,"MEAN_ANOMALY":37.8019,"EPHEMERIS_TYPE":0,"CLASSIFICATION_TYPE":"U","NORAD_CAT_ID":61753,"ELEMENT_SET_NO":999,"REV_AT_EPOCH":12111,"BSTAR":0.00072849,"MEAN_MOTION_DOT":0.00037919,"MEAN_MOTION_DDOT":0},{"OBJECT_NAME":"HORS 4 (RS82S)","OBJECT_ID":"2024-199V","EPOCH":"2026-03-03T03:11:33.557856","MEAN_MOTION":15.50542841,"ECCENTRICITY":0.0005973,"INCLINATION":97.312,"RA_OF_ASC_NODE":296.9964,"ARG_OF_PERICENTER":319.2189,"MEAN_ANOMALY":40.8615,"EPHEMERIS_TYPE":0,"CLASSIFICATION_TYPE":"U","NORAD_CAT_ID":61754,"ELEMENT_SET_NO":999,"REV_AT_EPOCH":12116,"BSTAR":0.0007673,"MEAN_MOTION_DOT":0.00043943,"MEAN_MOTION_DDOT":0},{"OBJECT_NAME":"HORIZON (RS59S)","OBJECT_ID":"2024-199Y","EPOCH":"2026-03-03T02:44:52.025856","MEAN_MOTION":15.68208128,"ECCENTRICITY":0.0003291,"INCLINATION":97.3087,"RA_OF_ASC_NODE":300.634,"ARG_OF_PERICENTER":296.2059,"MEAN_ANOMALY":63.8864,"EPHEMERIS_TYPE":0,"CLASSIFICATION_TYPE":"U","NORAD_CAT_ID":61757,"ELEMENT_SET_NO":999,"REV_AT_EPOCH":12139,"BSTAR":0.0012157,"MEAN_MOTION_DOT":0.00137462,"MEAN_MOTION_DDOT":0},{"OBJECT_NAME":"ARCTICSAT 1 (RS74S)","OBJECT_ID":"2024-199AD","EPOCH":"2026-03-03T04:09:56.121408","MEAN_MOTION":15.64215268,"ECCENTRICITY":0.0003677,"INCLINATION":97.3105,"RA_OF_ASC_NODE":300.2583,"ARG_OF_PERICENTER":292.0665,"MEAN_ANOMALY":68.0204,"EPHEMERIS_TYPE":0,"CLASSIFICATION_TYPE":"U","NORAD_CAT_ID":61762,"ELEMENT_SET_NO":999,"REV_AT_EPOCH":12137,"BSTAR":0.001074,"MEAN_MOTION_DOT":0.00103099,"MEAN_MOTION_DDOT":0},{"OBJECT_NAME":"SIT-2086","OBJECT_ID":"2024-199AF","EPOCH":"2026-03-03T03:01:41.323008","MEAN_MOTION":15.47251654,"ECCENTRICITY":0.0006318,"INCLINATION":97.3137,"RA_OF_ASC_NODE":297.0557,"ARG_OF_PERICENTER":300.791,"MEAN_ANOMALY":59.2717,"EPHEMERIS_TYPE":0,"CLASSIFICATION_TYPE":"U","NORAD_CAT_ID":61764,"ELEMENT_SET_NO":999,"REV_AT_EPOCH":11800,"BSTAR":0.00054494,"MEAN_MOTION_DOT":0.00027738,"MEAN_MOTION_DDOT":0},{"OBJECT_NAME":"RUZAEVKA 390 (RS44S)","OBJECT_ID":"2024-199AH","EPOCH":"2026-03-03T03:02:39.113376","MEAN_MOTION":16.01174251,"ECCENTRICITY":0.0001665,"INCLINATION":97.2874,"RA_OF_ASC_NODE":303.9457,"ARG_OF_PERICENTER":158.5882,"MEAN_ANOMALY":201.5467,"EPHEMERIS_TYPE":0,"CLASSIFICATION_TYPE":"U","NORAD_CAT_ID":61766,"ELEMENT_SET_NO":999,"REV_AT_EPOCH":11847,"BSTAR":0.0016897,"MEAN_MOTION_DOT":0.00909546,"MEAN_MOTION_DDOT":0.00040737},{"OBJECT_NAME":"HYPERVIEW 1G (RS66S)","OBJECT_ID":"2024-199AP","EPOCH":"2026-03-03T03:20:02.567040","MEAN_MOTION":15.56935943,"ECCENTRICITY":0.0007214,"INCLINATION":97.3102,"RA_OF_ASC_NODE":298.0452,"ARG_OF_PERICENTER":315.7926,"MEAN_ANOMALY":44.2752,"EPHEMERIS_TYPE":0,"CLASSIFICATION_TYPE":"U","NORAD_CAT_ID":61772,"ELEMENT_SET_NO":999,"REV_AT_EPOCH":11808,"BSTAR":0.001014,"MEAN_MOTION_DOT":0.00073525,"MEAN_MOTION_DDOT":0},{"OBJECT_NAME":"ALTAIR (RS65S)","OBJECT_ID":"2024-199AW","EPOCH":"2026-03-03T02:48:42.428736","MEAN_MOTION":15.34819802,"ECCENTRICITY":0.0012718,"INCLINATION":97.3194,"RA_OF_ASC_NODE":292.2259,"ARG_OF_PERICENTER":333.9459,"MEAN_ANOMALY":26.1143,"EPHEMERIS_TYPE":0,"CLASSIFICATION_TYPE":"U","NORAD_CAT_ID":61779,"ELEMENT_SET_NO":999,"REV_AT_EPOCH":12083,"BSTAR":0.00044297,"MEAN_MOTION_DOT":0.00014925,"MEAN_MOTION_DDOT":0},{"OBJECT_NAME":"ASRTU-1 (AO-123)","OBJECT_ID":"2024-199AY","EPOCH":"2026-03-03T03:47:35.488032","MEAN_MOTION":15.33901798,"ECCENTRICITY":0.0013447,"INCLINATION":97.3168,"RA_OF_ASC_NODE":291.805,"ARG_OF_PERICENTER":335.6356,"MEAN_ANOMALY":24.425,"EPHEMERIS_TYPE":0,"CLASSIFICATION_TYPE":"U","NORAD_CAT_ID":61781,"ELEMENT_SET_NO":999,"REV_AT_EPOCH":11766,"BSTAR":0.000336,"MEAN_MOTION_DOT":0.00010974,"MEAN_MOTION_DDOT":0},{"OBJECT_NAME":"TUSUR GO (RS78S)","OBJECT_ID":"2024-199AZ","EPOCH":"2026-03-03T03:06:21.718656","MEAN_MOTION":15.68579333,"ECCENTRICITY":0.0004427,"INCLINATION":97.3044,"RA_OF_ASC_NODE":299.6593,"ARG_OF_PERICENTER":314.6924,"MEAN_ANOMALY":45.3976,"EPHEMERIS_TYPE":0,"CLASSIFICATION_TYPE":"U","NORAD_CAT_ID":61782,"ELEMENT_SET_NO":999,"REV_AT_EPOCH":11819,"BSTAR":0.0013447,"MEAN_MOTION_DOT":0.00154723,"MEAN_MOTION_DDOT":0},{"OBJECT_NAME":"SAMSAT-IONOSPHERE (RS75S)","OBJECT_ID":"2024-199BB","EPOCH":"2026-03-03T03:31:41.263104","MEAN_MOTION":15.48918222,"ECCENTRICITY":0.0009247,"INCLINATION":97.3129,"RA_OF_ASC_NODE":296.1219,"ARG_OF_PERICENTER":321.9994,"MEAN_ANOMALY":38.0603,"EPHEMERIS_TYPE":0,"CLASSIFICATION_TYPE":"U","NORAD_CAT_ID":61784,"ELEMENT_SET_NO":999,"REV_AT_EPOCH":12110,"BSTAR":0.00076917,"MEAN_MOTION_DOT":0.00041634,"MEAN_MOTION_DDOT":0},{"OBJECT_NAME":"RTU MIREA 1 (RS51S)","OBJECT_ID":"2024-199BC","EPOCH":"2026-03-03T03:40:07.419360","MEAN_MOTION":15.50757976,"ECCENTRICITY":0.0008961,"INCLINATION":97.3129,"RA_OF_ASC_NODE":296.5536,"ARG_OF_PERICENTER":317.8651,"MEAN_ANOMALY":42.1911,"EPHEMERIS_TYPE":0,"CLASSIFICATION_TYPE":"U","NORAD_CAT_ID":61785,"ELEMENT_SET_NO":999,"REV_AT_EPOCH":11798,"BSTAR":0.00082211,"MEAN_MOTION_DOT":0.00047512,"MEAN_MOTION_DDOT":0},{"OBJECT_NAME":"TEVEL2-4","OBJECT_ID":"2025-052D","EPOCH":"2026-03-02T16:47:26.507904","MEAN_MOTION":15.30565789,"ECCENTRICITY":0.00044595,"INCLINATION":97.404,"RA_OF_ASC_NODE":318.1473,"ARG_OF_PERICENTER":108.3721,"MEAN_ANOMALY":251.8005,"EPHEMERIS_TYPE":0,"CLASSIFICATION_TYPE":"U","NORAD_CAT_ID":63213,"ELEMENT_SET_NO":999,"REV_AT_EPOCH":5380,"BSTAR":0.00075406769,"MEAN_MOTION_DOT":0.00022254,"MEAN_MOTION_DDOT":0},{"OBJECT_NAME":"TEVEL2-5","OBJECT_ID":"2025-052E","EPOCH":"2026-03-03T04:01:29.324928","MEAN_MOTION":15.30472372,"ECCENTRICITY":0.000448,"INCLINATION":97.4034,"RA_OF_ASC_NODE":318.5881,"ARG_OF_PERICENTER":107.9794,"MEAN_ANOMALY":252.1935,"EPHEMERIS_TYPE":0,"CLASSIFICATION_TYPE":"U","NORAD_CAT_ID":63214,"ELEMENT_SET_NO":999,"REV_AT_EPOCH":5387,"BSTAR":0.00075087,"MEAN_MOTION_DOT":0.00022095,"MEAN_MOTION_DDOT":0},{"OBJECT_NAME":"TEVEL2-6","OBJECT_ID":"2025-052F","EPOCH":"2026-03-03T04:15:23.095296","MEAN_MOTION":15.30430207,"ECCENTRICITY":0.0004565,"INCLINATION":97.4039,"RA_OF_ASC_NODE":318.5831,"ARG_OF_PERICENTER":109.1661,"MEAN_ANOMALY":251.0075,"EPHEMERIS_TYPE":0,"CLASSIFICATION_TYPE":"U","NORAD_CAT_ID":63215,"ELEMENT_SET_NO":999,"REV_AT_EPOCH":5387,"BSTAR":0.00076213,"MEAN_MOTION_DOT":0.00022399,"MEAN_MOTION_DDOT":0},{"OBJECT_NAME":"TEVEL2-1","OBJECT_ID":"2025-052H","EPOCH":"2026-03-03T04:10:18.871392","MEAN_MOTION":15.30019936,"ECCENTRICITY":0.0004409,"INCLINATION":97.4013,"RA_OF_ASC_NODE":318.3187,"ARG_OF_PERICENTER":117.8452,"MEAN_ANOMALY":242.3236,"EPHEMERIS_TYPE":0,"CLASSIFICATION_TYPE":"U","NORAD_CAT_ID":63217,"ELEMENT_SET_NO":999,"REV_AT_EPOCH":5386,"BSTAR":0.00075273,"MEAN_MOTION_DOT":0.00021842,"MEAN_MOTION_DDOT":0}]
